BEIDOU-3 IGSO-1         
1 44204U 19023A   19139.56668713 -.00000237  00000-0  10000-3 0  9991
2 44204  54.9387  65.2978 0016066 183.4322 304.2489  1.00297110   439
CZ-3B R/B               
1 44205U 19023B   19137.07167067  .00032358  13737-5  12648-2 0  9995
2 44205  28.5794  55.5517 7215556 196.0039 116.0485  2.40358224   644
TIANHUI 2-01A           
1 44207U 19024A   19139.54020308  .00000411  00000-0  24277-4 0  9990
2 44207  97.4498 146.7779 0001903  81.2867  33.3799 15.16768094  2964
CZ-4C DEB               
1 44208U 19024B   19139.50682399  .00001725  00000-0  87559-4 0  9992
2 44208  97.4524 146.7817 0011788 192.1993 167.8958 15.18196560  2967
TIANHUI 2-01B           
1 44209U 19024C   19139.54020137  .00000390  00000-0  23210-4 0  9994
2 44209  97.4497 146.7784 0001929  82.1070  32.8120 15.16767452  2964
CZ-4C R/B               
1 44210U 19024D   19138.86961423  .00025386  24446-5  16712-3 0  9997
2 44210  97.5248 147.5728 0166196 301.3245  57.1774 15.59460265  2948
CZ-4C DEB               
1 44211U 19024E   19139.55778510  .00001741  00000-0  85313-4 0  9996
2 44211  97.4614 146.8896 0019682 207.1677 152.8468 15.19339268  2882
CZ-4C DEB               
1 44212U 19024F   19139.55394674  .00001597  00000-0  78113-4 0  9991
2 44212  97.4610 146.8974 0008855 247.7222 112.3099 15.19638794  2889
CZ-4C DEB               
1 44213U 19024G   19139.01045501  .00001874  00000-0  87220-4 0  9992
2 44213  97.3694 146.1861 0021261 328.1638  31.8316 15.20977084  2821
DRAGON CRS-17           
1 44222U 19025A   19136.56906613  .00000265  00000-0  11688-4 0  9998
2 44222  51.6424 158.2936 0001549 359.1041 144.0883 15.52677814  1919
AFOTEC-1 (FALCON ODE)   
1 44225U 19026A   19138.73789622  .00001217  00000-0  63154-4 0  9995
2 44225  40.0198 156.6140 0006753 355.1965   4.8917 15.20204485  2045
SPARC-1                 
1 44226U 19026B   19139.51679818  .00001549  00000-0  75901-4 0  9999
2 44226  40.0194 151.9307 0010837   3.1081 356.9785 15.21219359  2166
ELECTRON R/B            
1 44227U 19026C   19139.19003704  .00000956  00000-0  50175-4 0  9996
2 44227  40.0245 153.8438 0009429   5.2800 354.8084 15.21052072  2118
ELECTRON R/B            
1 44228U 19026D   19137.48572979  .14961047  74632-5  46745-3 0  9998
2 44228  40.0022 155.4873 0043500 353.0910   7.0291 16.38978334  1941
HARBINGER               
1 44229U 19026E   19138.73575907  .00000577  00000-0  34017-4 0  9992
2 44229  40.0190 156.5842 0008210 357.4588   2.6157 15.20443543  2047
2019-027B               
1 44232U 19027B   19137.78135036  .00861042  00000-0  68823-1 0  9997
2 44232  19.3652 110.6975 7230147 179.1753  90.9458  2.37214799    19
